KALAMSAT-V2 & PSLV R/B  
1 43948U 19006B   22112.43419757  .00012977  00000+0  27574-3 0  9995
2 43948  98.8279 284.5458 0004496 100.7466 259.4285 15.45189608182267
MICROSAT-R DEB          
1 44383U 19006DE  22112.39566086  .00366219  29464-4  24034-2 0  9990
2 44383  96.1492  76.8594 0337568 126.5257 236.7577 15.26033142152792
